IRIDIUM 112             
1 41925U 17003J   23300.49077566  .00000142  00000+0  43563-4 0  9995
2 41925  86.3940 131.0934 0002242  84.3876 275.7575 14.34216423355146
IRIDIUM 111             
1 41926U 17003K   23300.47809365  .00000140  00000+0  43059-4 0  9992
2 41926  86.3942 131.1481 0001865  86.4042 273.7367 14.34215998355126
IRIDIUM 113             
1 42803U 17039A   23300.24874179  .00000531  00000+0  18263-3 0  9998
2 42803  86.4021   4.9843 0002097  89.5545 270.5891 14.34217046333027
IRIDIUM 123             
1 42804U 17039B   23300.56928481  .00000661  00000+0  22902-3 0  9999
2 42804  86.4014  36.3345 0002101  87.2279 272.9157 14.34216670331831
IRIDIUM 120             
1 42805U 17039C   23300.24240007  .00000420  00000+0  14307-3 0  9999
2 42805  86.4011   4.8946 0002073  93.0950 267.0483 14.34217447333017
IRIDIUM 115             
1 42806U 17039D   23300.42109208  .00000580  00000+0  16624-3 0  9998
2 42806  86.4548   4.8110 0001951  93.5154 266.6270 14.43366113335253
IRIDIUM 118             
1 42807U 17039E   23300.53123864  .00000427  00000+0  14524-3 0  9992
2 42807  86.4013  36.3526 0002172  93.9145 266.2299 14.34216853331823
IRIDIUM 117             
1 42808U 17039F   23300.55026610  .00000412  00000+0  14023-3 0  9994
2 42808  86.4012  36.3109 0002054  96.1923 263.9507 14.34215138331852
